{
    "links": {
        "self": "http://www.neowsapp.com/rest/v1/neo/3457436?api_key=iIulBulltgU6a56xZRHN4H3l9WmuAYTsLGpBGhQ2"
    },
    "id": "3457436",
    "neo_reference_id": "3457436",
    "name": "(2009 HT2)",
    "designation": "2009 HT2",
    "nasa_jpl_url": "http://ssd.jpl.nasa.gov/sbdb.cgi?sstr=3457436",
    "absolute_magnitude_h": 26.5,
    "estimated_diameter": {
        "kilometers": {
            "estimated_diameter_min": 0.0133215567,
            "estimated_diameter_max": 0.0297879063
        },
        "meters": {
            "estimated_diameter_min": 13.3215566698,
            "estimated_diameter_max": 29.7879062798
        },
        "miles": {
            "estimated_diameter_min": 0.008277629,
            "estimated_diameter_max": 0.0185093411
        },
        "feet": {
            "estimated_diameter_min": 43.7058959846,
            "estimated_diameter_max": 97.7293544391
        }
    },
    "is_potentially_hazardous_asteroid": false,
    "close_approach_data": [
        {
            "close_approach_date": "2009-04-19",
            "close_approach_date_full": "2009-Apr-19 18:56",
            "epoch_date_close_approach": 1240167360000,
            "relative_velocity": {
                "kilometers_per_second": "8.6578326422",
                "kilometers_per_hour": "31168.1975118787",
                "miles_per_hour": "19366.7058373115"
            },
            "miss_distance": {
                "astronomical": "0.0513570164",
                "lunar": "19.9778793796",
                "kilometers": "7682900.262995068",
                "miles": "4773932.8532172184"
            },
            "orbiting_body": "Earth"
        },
        {
            "close_approach_date": "2011-08-19",
            "close_approach_date_full": "2011-Aug-19 23:34",
            "epoch_date_close_approach": 1313796840000,
            "relative_velocity": {
                "kilometers_per_second": "5.2989139521",
                "kilometers_per_hour": "19076.0902276679",
                "miles_per_hour": "11853.1406195195"
            },
            "miss_distance": {
                "astronomical": "0.6944238707",
                "lunar": "270.1308857023",
                "kilometers": "103884331.933875409",
                "miles": "64550730.6065582842"
            },
            "orbiting_body": "Juptr"
        }
    ],
    "orbital_data": {
        "orbit_id": "6",
        "orbit_determination_date": "2017-04-06 09:00:47",
        "first_observation_date": "2009-04-18",
        "last_observation_date": "2009-04-20",
        "data_arc_in_days": 2,
        "observations_used": 30,
        "orbit_uncertainty": "8",
        "minimum_orbit_intersection": ".0513476",
        "jupiter_tisserand_invariant": "3.070",
        "epoch_osculation": "2454940.5",
        "eccentricity": ".6061597849093983",
        "semi_major_axis": "2.680699931096066",
        "inclination": "8.656853914104849",
        "ascending_node_longitude": "29.41191917795155",
        "orbital_period": "1603.137346990893",
        "perihelion_distance": "1.055767437456236",
        "perihelion_argument": "178.6571793885877",
        "aphelion_distance": "4.305632424735896",
        "perihelion_time": "2454939.855568140571",
        "mean_anomaly": ".1447134082615555",
        "mean_motion": ".224559673989084",
        "equinox": "J2000",
        "orbit_class": {
            "orbit_class_type": "AMO",
            "orbit_class_description": "Near-Earth asteroid orbits similar to that of 1221 Amor",
            "orbit_class_range": "1.017 AU < q (perihelion) < 1.3 AU"
        }
    },
    "is_sentry_object": false
}